CCSDS_OMM_VERS = 2.0
CREATION_DATE  = 
ORIGINATOR     = 

OBJECT_NAME    = OKEAN-3
OBJECT_ID      = 1991-039A
CENTER_NAME    = EARTH
REF_FRAME      = TEME
TIME_SYSTEM    = UTC
MEAN_ELEMENT_THEORY = SGP/SGP4

EPOCH          = 2025-11-19T14:18:06.607584
MEAN_MOTION    = 15.03895705
ECCENTRICITY   = .00142005
INCLINATION    = 82.5161
RA_OF_ASC_NODE = 83.4420
ARG_OF_PERICENTER = 351.5098
MEAN_ANOMALY   = 8.5885

EPHEMERIS_TYPE = 0
CLASSIFICATION_TYPE = U
NORAD_CAT_ID   = 21397
ELEMENT_SET_NO = 999
REV_AT_EPOCH   = 84848
BSTAR          = .24555186E-3
MEAN_MOTION_DOT = .3416E-4
MEAN_MOTION_DDOT = 0

CCSDS_OMM_VERS = 2.0
CREATION_DATE  = 
ORIGINATOR     = 

OBJECT_NAME    = COSMOS 2151
OBJECT_ID      = 1991-042A
CENTER_NAME    = EARTH
REF_FRAME      = TEME
TIME_SYSTEM    = UTC
MEAN_ELEMENT_THEORY = SGP/SGP4

EPOCH          = 2025-11-19T14:28:25.254048
MEAN_MOTION    = 14.99572585
ECCENTRICITY   = .00141074
INCLINATION    = 82.4978
RA_OF_ASC_NODE = 189.7957
ARG_OF_PERICENTER = 72.8895
MEAN_ANOMALY   = 287.3873

EPHEMERIS_TYPE = 0
CLASSIFICATION_TYPE = U
NORAD_CAT_ID   = 21422
ELEMENT_SET_NO = 999
REV_AT_EPOCH   = 84669
BSTAR          = .12877196E-3
MEAN_MOTION_DOT = .1613E-4
MEAN_MOTION_DDOT = 0

CCSDS_OMM_VERS = 2.0
CREATION_DATE  = 
ORIGINATOR     = 

OBJECT_NAME    = SL-14 R/B
OBJECT_ID      = 1991-042B
CENTER_NAME    = EARTH
REF_FRAME      = TEME
TIME_SYSTEM    = UTC
MEAN_ELEMENT_THEORY = SGP/SGP4

EPOCH          = 2025-11-19T11:36:49.336704
MEAN_MOTION    = 14.81708611
ECCENTRICITY   = .00156457
INCLINATION    = 82.4915
RA_OF_ASC_NODE = 323.5344
ARG_OF_PERICENTER = 240.7275
MEAN_ANOMALY   = 119.2376

EPHEMERIS_TYPE = 0
CLASSIFICATION_TYPE = U
NORAD_CAT_ID   = 21423
ELEMENT_SET_NO = 999
REV_AT_EPOCH   = 83675
BSTAR          = .67441842E-4
MEAN_MOTION_DOT = .555E-5
MEAN_MOTION_DDOT = 0

CCSDS_OMM_VERS = 2.0
CREATION_DATE  = 
ORIGINATOR     = 

OBJECT_NAME    = ERS-1
OBJECT_ID      = 1991-050A
CENTER_NAME    = EARTH
REF_FRAME      = TEME
TIME_SYSTEM    = UTC
MEAN_ELEMENT_THEORY = SGP/SGP4

EPOCH          = 2025-11-19T10:46:47.479296
MEAN_MOTION    = 14.39339698
ECCENTRICITY   = .00322431
INCLINATION    = 98.7916
RA_OF_ASC_NODE = 333.9202
ARG_OF_PERICENTER = 167.5370
MEAN_ANOMALY   = 192.6621

EPHEMERIS_TYPE = 0
CLASSIFICATION_TYPE = U
NORAD_CAT_ID   = 21574
ELEMENT_SET_NO = 999
REV_AT_EPOCH   = 79987
BSTAR          = .15018682E-3
MEAN_MOTION_DOT = .423E-5
MEAN_MOTION_DDOT = 0

CCSDS_OMM_VERS = 2.0
CREATION_DATE  = 
ORIGINATOR     = 

OBJECT_NAME    = ARIANE 40 R/B
OBJECT_ID      = 1991-050F
CENTER_NAME    = EARTH
REF_FRAME      = TEME
TIME_SYSTEM    = UTC
MEAN_ELEMENT_THEORY = SGP/SGP4

EPOCH          = 2025-11-19T13:18:00.761472
MEAN_MOTION    = 14.42785841
ECCENTRICITY   = .00040528
INCLINATION    = 98.2200
RA_OF_ASC_NODE = 14.8182
ARG_OF_PERICENTER = 61.2942
MEAN_ANOMALY   = 298.8655

EPHEMERIS_TYPE = 0
CLASSIFICATION_TYPE = U
NORAD_CAT_ID   = 21610
ELEMENT_SET_NO = 999
REV_AT_EPOCH   = 80311
BSTAR          = .14355725E-3
MEAN_MOTION_DOT = .437E-5
MEAN_MOTION_DDOT = 0

CCSDS_OMM_VERS = 2.0
CREATION_DATE  = 
ORIGINATOR     = 

OBJECT_NAME    = INTERCOSMOS 25
OBJECT_ID      = 1991-086A
CENTER_NAME    = EARTH
REF_FRAME      = TEME
TIME_SYSTEM    = UTC
MEAN_ELEMENT_THEORY = SGP/SGP4

EPOCH          = 2025-11-19T14:24:50.116320
MEAN_MOTION    = 12.11626652
ECCENTRICITY   = .14878304
INCLINATION    = 82.6085
RA_OF_ASC_NODE = 16.5649
ARG_OF_PERICENTER = 354.2886
MEAN_ANOMALY   = 4.2713

EPHEMERIS_TYPE = 0
CLASSIFICATION_TYPE = U
NORAD_CAT_ID   = 21819
ELEMENT_SET_NO = 999
REV_AT_EPOCH   = 48335
BSTAR          = .32262276E-3
MEAN_MOTION_DOT = .1645E-4
MEAN_MOTION_DDOT = 0

CCSDS_OMM_VERS = 2.0
CREATION_DATE  = 
ORIGINATOR     = 

OBJECT_NAME    = SL-8 R/B
OBJECT_ID      = 1992-008B
CENTER_NAME    = EARTH
REF_FRAME      = TEME
TIME_SYSTEM    = UTC
MEAN_ELEMENT_THEORY = SGP/SGP4

EPOCH          = 2025-11-19T13:46:51.736224
MEAN_MOTION    = 13.75951813
ECCENTRICITY   = .00361079
INCLINATION    = 82.9274
RA_OF_ASC_NODE = 349.6785
ARG_OF_PERICENTER = 82.7427
MEAN_ANOMALY   = 73.0885

EPHEMERIS_TYPE = 0
CLASSIFICATION_TYPE = U
NORAD_CAT_ID   = 21876
ELEMENT_SET_NO = 999
REV_AT_EPOCH   = 69427
BSTAR          = .12862596E-3
MEAN_MOTION_DOT = .141E-5
MEAN_MOTION_DDOT = 0

CCSDS_OMM_VERS = 2.0
CREATION_DATE  = 
ORIGINATOR     = 

OBJECT_NAME    = SL-8 R/B
OBJECT_ID      = 1992-020B
CENTER_NAME    = EARTH
REF_FRAME      = TEME
TIME_SYSTEM    = UTC
MEAN_ELEMENT_THEORY = SGP/SGP4

EPOCH          = 2025-11-19T06:49:27.133248
MEAN_MOTION    = 13.75522905
ECCENTRICITY   = .00277008
INCLINATION    = 82.9316
RA_OF_ASC_NODE = 235.7329
ARG_OF_PERICENTER = 245.3746
MEAN_ANOMALY   = 231.6081

EPHEMERIS_TYPE = 0
CLASSIFICATION_TYPE = U
NORAD_CAT_ID   = 21938
ELEMENT_SET_NO = 999
REV_AT_EPOCH   = 68595
BSTAR          = .8000859E-4
MEAN_MOTION_DOT = .92E-6
MEAN_MOTION_DDOT = 0

CCSDS_OMM_VERS = 2.0
CREATION_DATE  = 
ORIGINATOR     = 

OBJECT_NAME    = USA 81
OBJECT_ID      = 1992-023A
CENTER_NAME    = EARTH
REF_FRAME      = TEME
TIME_SYSTEM    = UTC
MEAN_ELEMENT_THEORY = SGP/SGP4

EPOCH          = 2025-11-19T15:08:32.231040
MEAN_MOTION    = 14.32315392
ECCENTRICITY   = .00024324
INCLINATION    = 85.0103
RA_OF_ASC_NODE = 194.9014
ARG_OF_PERICENTER = 70.4791
MEAN_ANOMALY   = 289.6664

EPHEMERIS_TYPE = 0
CLASSIFICATION_TYPE = U
NORAD_CAT_ID   = 21949
ELEMENT_SET_NO = 999
REV_AT_EPOCH   = 7903
BSTAR          = .77384693E-4
MEAN_MOTION_DOT = .229E-5
MEAN_MOTION_DDOT = 0

CCSDS_OMM_VERS = 2.0
CREATION_DATE  = 
ORIGINATOR     = 

OBJECT_NAME    = COSMOS 2219
OBJECT_ID      = 1992-076A
CENTER_NAME    = EARTH
REF_FRAME      = TEME
TIME_SYSTEM    = UTC
MEAN_ELEMENT_THEORY = SGP/SGP4

EPOCH          = 2025-11-19T12:31:52.761216
MEAN_MOTION    = 14.14067613
ECCENTRICITY   = .00181255
INCLINATION    = 71.0610
RA_OF_ASC_NODE = 248.3638
ARG_OF_PERICENTER = 359.9829
MEAN_ANOMALY   = 0.1290

EPHEMERIS_TYPE = 0
CLASSIFICATION_TYPE = U
NORAD_CAT_ID   = 22219
ELEMENT_SET_NO = 999
REV_AT_EPOCH   = 70280
BSTAR          = -.22365849E-4
MEAN_MOTION_DOT = -.9E-6
MEAN_MOTION_DDOT = 0

CCSDS_OMM_VERS = 2.0
CREATION_DATE  = 
ORIGINATOR     = 

OBJECT_NAME    = SL-16 R/B
OBJECT_ID      = 1992-076B
CENTER_NAME    = EARTH
REF_FRAME      = TEME
TIME_SYSTEM    = UTC
MEAN_ELEMENT_THEORY = SGP/SGP4

EPOCH          = 2025-11-19T13:12:23.943168
MEAN_MOTION    = 14.16835470
ECCENTRICITY   = .00152142
INCLINATION    = 71.0009
RA_OF_ASC_NODE = 60.3780
ARG_OF_PERICENTER = 264.1799
MEAN_ANOMALY   = 106.6530

EPHEMERIS_TYPE = 0
CLASSIFICATION_TYPE = U
NORAD_CAT_ID   = 22220
ELEMENT_SET_NO = 999
REV_AT_EPOCH   = 70623
BSTAR          = -.2164366E-4
MEAN_MOTION_DOT = -.91E-6
MEAN_MOTION_DDOT = 0

CCSDS_OMM_VERS = 2.0
CREATION_DATE  = 
ORIGINATOR     = 

OBJECT_NAME    = COSMOS 2221
OBJECT_ID      = 1992-080A
CENTER_NAME    = EARTH
REF_FRAME      = TEME
TIME_SYSTEM    = UTC
MEAN_ELEMENT_THEORY = SGP/SGP4

EPOCH          = 2025-11-19T06:27:13.935456
MEAN_MOTION    = 14.95637067
ECCENTRICITY   = .00141619
INCLINATION    = 82.5067
RA_OF_ASC_NODE = 24.7864
ARG_OF_PERICENTER = 197.8319
MEAN_ANOMALY   = 162.2407

EPHEMERIS_TYPE = 0
CLASSIFICATION_TYPE = U
NORAD_CAT_ID   = 22236
ELEMENT_SET_NO = 999
REV_AT_EPOCH   = 76428
BSTAR          = .20999437E-3
MEAN_MOTION_DOT = .2362E-4
MEAN_MOTION_DDOT = 0

