OKEAN-3                 
1 21397U 91039A   25323.59590981  .00003416  00000+0  24555-3 0  9992
2 21397  82.5161  83.4420 0014200 351.5098   8.5885 15.03895705848485
COSMOS 2151             
1 21422U 91042A   25323.60307007  .00001613  00000+0  12877-3 0  9993
2 21422  82.4978 189.7957 0014107  72.8895 287.3873 14.99572585846695
SL-14 R/B               
1 21423U 91042B   25323.48390436  .00000555  00000+0  67442-4 0  9991
2 21423  82.4915 323.5344 0015645 240.7275 119.2376 14.81708611836750
ERS-1                   
1 21574U 91050A   25323.44916064  .00000423  00000+0  15019-3 0  9990
2 21574  98.7916 333.9202 0032243 167.5370 192.6621 14.39339698799878
ARIANE 40 R/B           
1 21610U 91050F   25323.55417548  .00000437  00000+0  14356-3 0  9994
2 21610  98.2200  14.8182 0004052  61.2942 298.8655 14.42785841803112
INTERCOSMOS 25          
1 21819U 91086A   25323.60058005  .00001645  00000+0  32262-3 0  9997
2 21819  82.6085  16.5649 1487830 354.2886   4.2713 12.11626652483352
SL-8 R/B                
1 21876U 92008B   25323.57420991  .00000141  00000+0  12863-3 0  9993
2 21876  82.9274 349.6785 0036107  82.7427  73.0885 13.75951813694279
SL-8 R/B                
1 21938U 92020B   25323.28434182  .00000092  00000+0  80009-4 0  9994
2 21938  82.9316 235.7329 0027700 245.3746 231.6081 13.75522905685955
USA 81                  
1 21949U 92023A   25323.63092860  .00000229  00000+0  77385-4 0  9996
2 21949  85.0103 194.9014 0002432  70.4791 289.6664 14.32315392 79034
COSMOS 2219             
1 22219U 92076A   25323.52213844 -.00000090  00000+0 -22366-4 0  9997
2 22219  71.0610 248.3638 0018125 359.9829   0.1290 14.14067613702801
SL-16 R/B               
1 22220U 92076B   25323.55027712 -.00000091  00000+0 -21644-4 0  9998
2 22220  71.0009  60.3780 0015214 264.1799 106.6530 14.16835470706230
COSMOS 2221             
1 22236U 92080A   25323.26891129  .00002362  00000+0  20999-3 0  9991
2 22236  82.5067  24.7864 0014161 197.8319 162.2407 14.95637067764284
